STARLINK-31860          
1 59670U 24084S   26068.29977680  .00000063  00000+0  11822-4 0  9991
2 59670  43.0038  40.5216 0001168 233.4402 126.6342 15.27576635104331
YAOGAN-43 01D           
1 60461U 24148D   26068.43560480  .00010676  00000+0  37766-3 0  9999
2 60461  35.0010  61.7102 0002556 326.2473  33.8080 15.28369377 87008
